{
  "norad_id": 57527,
  "name": "STARLINK-30250",
  "history": [
    {
      "epoch": "2026-03-28T17:55:51.434112Z",
      "apogee_km": 483.71116304854513,
      "perigee_km": 482.369116799975,
      "latitude_deg": 8.282538131546101e-07,
      "longitude_deg": 159.02505810595133,
      "height_km": 482.8771968104221,
      "semi_major_axis_km": 6861.17713992426,
      "eccentricity": 9.78e-05,
      "inclination_deg": 42.9993,
      "raan_deg": 254.1525,
      "arg_perigee_deg": 264.8008,
      "mean_anomaly_deg": 95.2732,
      "mean_motion_rev_day": 15.27582991
    },
    {
      "epoch": "2026-03-29T03:20:47.845824Z",
      "apogee_km": 484.14786632923915,
      "perigee_km": 481.9467983954173,
      "latitude_deg": 9.735778441887641e-06,
      "longitude_deg": 15.189930953460118,
      "height_km": 482.8428374211371,
      "semi_major_axis_km": 6861.184332362328,
      "eccentricity": 0.0001604,
      "inclination_deg": 43.0024,
      "raan_deg": 251.9391,
      "arg_perigee_deg": 269.0434,
      "mean_anomaly_deg": 91.0234,
      "mean_motion_rev_day": 15.27580589
    },
    {
      "epoch": "2026-03-30T02:53:07.768320Z",
      "apogee_km": 484.31574973645,
      "perigee_km": 481.714824127519,
      "latitude_deg": -3.996215397301894e-06,
      "longitude_deg": 15.599799554619722,
      "height_km": 482.6945909079992,
      "semi_major_axis_km": 6861.152286931984,
      "eccentricity": 0.00018954,
      "inclination_deg": 43.0034,
      "raan_deg": 246.3987,
      "arg_perigee_deg": 274.3297,
      "mean_anomaly_deg": 85.7338,
      "mean_motion_rev_day": 15.27591291
    },
    {
      "epoch": "2026-03-30T10:43:55.796448Z",
      "apogee_km": 483.9703404219026,
      "perigee_km": 482.2024775983382,
      "latitude_deg": 5.6946086142173716e-05,
      "longitude_deg": -104.26700375392882,
      "height_km": 482.90263042412704,
      "semi_major_axis_km": 6861.22340901012,
      "eccentricity": 0.00012883,
      "inclination_deg": 43.0034,
      "raan_deg": 244.5542,
      "arg_perigee_deg": 267.4553,
      "mean_anomaly_deg": 92.6152,
      "mean_motion_rev_day": 15.27567539
    },
    {
      "epoch": "2026-03-30T17:00:33.366528Z",
      "apogee_km": 484.0041865916173,
      "perigee_km": 482.16222341538196,
      "latitude_deg": -7.92257189413872e-06,
      "longitude_deg": 159.84069392569484,
      "height_km": 482.8010030022126,
      "semi_major_axis_km": 6861.220205003499,
      "eccentricity": 0.00013423,
      "inclination_deg": 43.0022,
      "raan_deg": 243.0763,
      "arg_perigee_deg": 273.6798,
      "mean_anomaly_deg": 86.39,
      "mean_motion_rev_day": 15.27568609
    },
    {
      "epoch": "2026-03-31T19:41:12.579936Z",
      "apogee_km": 483.93339069633384,
      "perigee_km": 482.1069506574995,
      "latitude_deg": 2.5391858236030083e-05,
      "longitude_deg": 112.30173331148214,
      "height_km": 482.7192048347993,
      "semi_major_axis_km": 6861.157170676916,
      "eccentricity": 0.0001331,
      "inclination_deg": 43.0009,
      "raan_deg": 236.7963,
      "arg_perigee_deg": 274.8817,
      "mean_anomaly_deg": 85.1883,
      "mean_motion_rev_day": 15.2758966
    },
    {
      "epoch": "2026-04-01T16:05:15.101088Z",
      "apogee_km": 483.80502476071615,
      "perigee_km": 482.2694939614712,
      "latitude_deg": -2.25979323789931e-06,
      "longitude_deg": 160.65417311103928,
      "height_km": 482.53569766413005,
      "semi_major_axis_km": 6861.174259361093,
      "eccentricity": 0.0001119,
      "inclination_deg": 43.0008,
      "raan_deg": 231.9971,
      "arg_perigee_deg": 291.2356,
      "mean_anomaly_deg": 68.8376,
      "mean_motion_rev_day": 15.27583953
    },
    {
      "epoch": "2026-04-02T17:11:44.354976Z",
      "apogee_km": 484.2065021333083,
      "perigee_km": 481.89400758093143,
      "latitude_deg": 2.242049630499206e-05,
      "longitude_deg": 137.091055038547,
      "height_km": 482.69977570383224,
      "semi_major_axis_km": 6861.18725485712,
      "eccentricity": 0.00016852,
      "inclination_deg": 43.002,
      "raan_deg": 226.087,
      "arg_perigee_deg": 276.338,
      "mean_anomaly_deg": 83.728,
      "mean_motion_rev_day": 15.27579613
    },
    {
      "epoch": "2026-04-03T18:18:15.982272Z",
      "apogee_km": 484.2824460729462,
      "perigee_km": 481.94824802447965,
      "latitude_deg": -2.3390129435575726e-06,
      "longitude_deg": 113.5224672031044,
      "height_km": 482.8224015547999,
      "semi_major_axis_km": 6861.252347048712,
      "eccentricity": 0.0001701,
      "inclination_deg": 43.0018,
      "raan_deg": 220.1814,
      "arg_perigee_deg": 273.4435,
      "mean_anomaly_deg": 86.6222,
      "mean_motion_rev_day": 15.27557875
    },
    {
      "epoch": "2026-04-04T14:42:17.565120Z",
      "apogee_km": 484.0609763877328,
      "perigee_km": 481.8297524028321,
      "latitude_deg": 1.4381538231349511e-05,
      "longitude_deg": 161.87907294605665,
      "height_km": 482.64147739588066,
      "semi_major_axis_km": 6861.082364395283,
      "eccentricity": 0.0001626,
      "inclination_deg": 43.002,
      "raan_deg": 215.3824,
      "arg_perigee_deg": 274.1636,
      "mean_anomaly_deg": 85.903,
      "mean_motion_rev_day": 15.27614643
    },
    {
      "epoch": "2026-04-05T14:14:39.516288Z",
      "apogee_km": 485.72538841470487,
      "perigee_km": 480.41179635573917,
      "latitude_deg": 4.877229694023632e-05,
      "longitude_deg": 162.2816149106303,
      "height_km": 483.6526321484602,
      "semi_major_axis_km": 6861.205592385222,
      "eccentricity": 0.00038722,
      "inclination_deg": 43.0034,
      "raan_deg": 209.8431,
      "arg_perigee_deg": 107.8204,
      "mean_anomaly_deg": 252.3071,
      "mean_motion_rev_day": 15.27573489
    },
    {
      "epoch": "2026-04-05T15:48:49.018752Z",
      "apogee_km": 484.34465353551786,
      "perigee_km": 481.8526527462973,
      "latitude_deg": 2.4735035798696065e-05,
      "longitude_deg": 138.30774644684507,
      "height_km": 483.0895656783965,
      "semi_major_axis_km": 6861.235653140908,
      "eccentricity": 0.0001816,
      "inclination_deg": 43.0014,
      "raan_deg": 209.4733,
      "arg_perigee_deg": 260.121,
      "mean_anomaly_deg": 99.9437,
      "mean_motion_rev_day": 15.2756345
    },
    {
      "epoch": "2026-04-05T15:48:49.019616Z",
      "apogee_km": 484.3443104737353,
      "perigee_km": 481.8529958080808,
      "latitude_deg": 2.0851577678959817e-05,
      "longitude_deg": 138.30773869572283,
      "height_km": 483.0895068288872,
      "semi_major_axis_km": 6861.235653140908,
      "eccentricity": 0.00018155,
      "inclination_deg": 43.0014,
      "raan_deg": 209.4733,
      "arg_perigee_deg": 260.121,
      "mean_anomaly_deg": 99.9437,
      "mean_motion_rev_day": 15.2756345
    },
    {
      "epoch": "2026-04-07T07:02:43.078560Z",
      "apogee_km": 483.8923219321632,
      "perigee_km": 482.07083217232775,
      "latitude_deg": -9.61606859882505e-06,
      "longitude_deg": -101.01133131955787,
      "height_km": 482.8408660875772,
      "semi_major_axis_km": 6861.118577052245,
      "eccentricity": 0.00013274,
      "inclination_deg": 43.0001,
      "raan_deg": 200.2407,
      "arg_perigee_deg": 264.793,
      "mean_anomaly_deg": 95.277,
      "mean_motion_rev_day": 15.27602549
    },
    {
      "epoch": "2026-04-08T06:35:04.075872Z",
      "apogee_km": 486.38836687287676,
      "perigee_km": 479.67471345632566,
      "latitude_deg": 4.926714565749434e-05,
      "longitude_deg": -100.60177944617584,
      "height_km": 481.8122171202776,
      "semi_major_axis_km": 6861.168540164601,
      "eccentricity": 0.00048925,
      "inclination_deg": 43.0055,
      "raan_deg": 194.7044,
      "arg_perigee_deg": 287.3092,
      "mean_anomaly_deg": 72.7225,
      "mean_motion_rev_day": 15.27585863
    },
    {
      "epoch": "2026-04-09T12:24:01.714464Z",
      "apogee_km": 484.11413023657224,
      "perigee_km": 481.9240492127328,
      "latitude_deg": -7.155458105613307e-06,
      "longitude_deg": 163.91199579885603,
      "height_km": 483.08203168091563,
      "semi_major_axis_km": 6861.156089724653,
      "eccentricity": 0.0001596,
      "inclination_deg": 42.9984,
      "raan_deg": 187.6829,
      "arg_perigee_deg": 254.8414,
      "mean_anomaly_deg": 105.2261,
      "mean_motion_rev_day": 15.27590021
    },
    {
      "epoch": "2026-04-10T05:39:45.322272Z",
      "apogee_km": 484.4148935672929,
      "perigee_km": 481.6656198405317,
      "latitude_deg": 1.525363748736543e-05,
      "longitude_deg": -99.78711127365845,
      "height_km": 482.70502105347424,
      "semi_major_axis_km": 6861.177256703912,
      "eccentricity": 0.00020035,
      "inclination_deg": 43.001,
      "raan_deg": 183.6244,
      "arg_perigee_deg": 274.6957,
      "mean_anomaly_deg": 85.3666,
      "mean_motion_rev_day": 15.27582952
    },
    {
      "epoch": "2026-04-11T14:37:02.741664Z",
      "apogee_km": 484.06116075332466,
      "perigee_km": 482.0467150939494,
      "latitude_deg": -2.8413962920481882e-06,
      "longitude_deg": 116.78257872430017,
      "height_km": 482.969145837668,
      "semi_major_axis_km": 6861.190937923637,
      "eccentricity": 0.0001468,
      "inclination_deg": 43.0032,
      "raan_deg": 175.8701,
      "arg_perigee_deg": 262.118,
      "mean_anomaly_deg": 97.9505,
      "mean_motion_rev_day": 15.27578383
    },
    {
      "epoch": "2026-04-13T05:50:57.244704Z",
      "apogee_km": 484.01967866361247,
      "perigee_km": 482.0857837259782,
      "latitude_deg": 5.0002540489907537e-05,
      "longitude_deg": -122.5366549408802,
      "height_km": 482.8639085703222,
      "semi_major_axis_km": 6861.189731194795,
      "eccentricity": 0.00014093,
      "inclination_deg": 43.004,
      "raan_deg": 166.6391,
      "arg_perigee_deg": 267.983,
      "mean_anomaly_deg": 92.0861,
      "mean_motion_rev_day": 15.27578786
    }
  ]
}